NORAD_CAT_ID,OBJECT_NAME,OBJECT_TYPE,EPOCH,MEAN_MOTION,ECCENTRICITY,INCLINATION,RA_OF_ASC_NODE,ARG_OF_PERICENTER,MEAN_ANOMALY,BSTAR,MEAN_MOTION_DOT,MEAN_MOTION_DDOT,TLE_LINE0,TLE_LINE1,TLE_LINE2,SEMIMAJOR_AXIS,PERIOD,APOGEE,PERIGEE,DECAYED
51881.0,STARLINK-3504,PAYLOAD,2022-07-24 06:00:00,15.08849267,0.00025,53.215,184.7637,45.4761,24.8849,-0.000519,-8.541e-05,0.0,0 STARLINK-3504,1 51881U 22022AF  22205.25001157 -.00008541  00000-0 -51900-3 0  9991,2 51881  53.2150 184.7637 0002500  45.4761  24.8849 15.08849267 23359,6917.852,95.437,541.447,537.988,0.0
51881.0,STARLINK-3504,PAYLOAD,2022-07-24 14:00:01,15.08871401,0.000242,53.2148,183.2665,45.0987,36.8595,-0.002976,-0.00047383,0.0,0 STARLINK-3504,1 51881U 22022AF  22205.58334491 -.00047383  00000-0 -29760-2 0  9992,2 51881  53.2148 183.2665 0002420  45.0987  36.8595 15.08871401  1305,6917.784000000002,95.436,541.3240000000002,537.975,0.0
51881.0,STARLINK-3504,PAYLOAD,2022-07-24 22:00:00,15.08833314,0.0002259,53.215,181.7691,49.2988,44.2759,0.00026435,3.921e-05,0.0,0 STARLINK-3504,1 51881U 22022AF  22205.91667824  .00003921  00000-0  26435-3 0  9993,2 51881  53.2150 181.7691 0002259  49.2988  44.2759 15.08833314  1303,6917.901,95.438,541.3290000000002,538.203,0.0
51881.0,STARLINK-3504,PAYLOAD,2022-07-25 14:00:01,15.08845122,0.0002363,53.2145,178.7773,46.2515,70.4874,-0.002097,-0.00033513,0.0,0 STARLINK-3504,1 51881U 22022AF  22206.58334491 -.00033513  00000-0 -20970-2 0  9997,2 51881  53.2145 178.7773 0002363  46.2515  70.4874 15.08845122  1302,6917.865,95.437,541.364,538.095,0.0
51881.0,STARLINK-3504,PAYLOAD,2022-07-25 22:00:00,15.0883181,0.000229,53.2147,177.2801,51.4484,76.8788,0.001133,0.00017786,0.0,0 STARLINK-3504,1 51881U 22022AF  22206.91667824  .00017786  00000-0  11330-2 0  9995,2 51881  53.2147 177.2801 0002290  51.4484  76.8788 15.08831810  1305,6917.905,95.438,541.355,538.186,0.0
51881.0,STARLINK-3504,PAYLOAD,2022-07-26 06:00:00,15.08829678,0.0002471,53.2146,175.7856,47.5686,92.3514,0.00025067,3.702e-05,0.0,0 STARLINK-3504,1 51881U 22022AF  22207.25001157  .00003702  00000-0  25067-3 0  9990,2 51881  53.2146 175.7856 0002471  47.5686  92.3514 15.08829678 23659,6917.9119999999975,95.438,541.486,538.068,0.0
51881.0,STARLINK-3504,PAYLOAD,2022-07-26 14:00:01,15.08852785,0.0002398,53.2143,174.2881,48.845,102.6584,-0.0019617,-0.00031386,0.0,0 STARLINK-3504,1 51881U 22022AF  22207.58334491 -.00031386  00000-0 -19617-2 0  9990,2 51881  53.2143 174.2881 0002398  48.8450 102.6584 15.08852785  1304,6917.840999999999,95.437,541.365,538.047,0.0
51881.0,STARLINK-3504,PAYLOAD,2022-07-26 22:00:00,15.08842307,0.0002365,53.2146,172.7911,53.6468,109.451,0.00064314,9.963e-05,0.0,0 STARLINK-3504,1 51881U 22022AF  22207.91667824  .00009963  00000-0  64314-3 0  9995,2 51881  53.2146 172.7911 0002365  53.6468 109.4510 15.08842307  1304,6917.873000000001,95.437,541.374,538.102,0.0
51881.0,STARLINK-3504,PAYLOAD,2022-07-27 06:00:02,15.08835104,0.0002546999999999,53.2145,171.2964,49.287,125.4817,0.00094354,0.00014759,0.0,0 STARLINK-3504,1 51881U 22022AF  22208.25002315  .00014759  00000-0  94354-3 0  9997,2 51881  53.2145 171.2964 0002547  49.2870 125.4817 15.08835104 23809,6917.895,95.438,541.5219999999998,537.998,0.0
51881.0,STARLINK-3504,PAYLOAD,2022-07-27 14:00:01,15.08861579,0.0002453,53.2144,169.7988,50.5184,135.7802,-0.001876,-0.0003003999999999,0.0,0 STARLINK-3504,1 51881U 22022AF  22208.58334491 -.00030040  00000-0 -18760-2 0  9995,2 51881  53.2144 169.7988 0002453  50.5184 135.7802 15.08861579  1309,6917.814,95.436,541.376,537.982,0.0
51881.0,STARLINK-3504,PAYLOAD,2022-07-27 22:00:00,15.08860682,0.0002406,53.2147,168.30200000000005,54.2884,143.6151,-0.0024757,-0.00039498,0.0,0 STARLINK-3504,1 51881U 22022AF  22208.91667824 -.00039498  00000-0 -24757-2 0  9990,2 51881  53.2147 168.3020 0002406  54.2884 143.6151 15.08860682  1309,6917.816999999999,95.436,541.347,538.018,0.0
51881.0,STARLINK-3504,PAYLOAD,2022-07-28 06:00:00,15.08813457,0.0002565,53.2149,166.8073,48.8331,160.6797,0.0015038,0.00023709,0.0,0 STARLINK-3504,1 51881U 22022AF  22209.25001157  .00023709  00000-0  15038-2 0  9997,2 51881  53.2149 166.8073 0002565  48.8331 160.6797 15.08813457 23952,6917.962,95.439,541.601,538.052,0.0
51881.0,STARLINK-3504,PAYLOAD,2022-07-28 14:00:01,15.08843177,0.0002458,53.215,165.3095,50.4488,170.6365,-0.0016232,-0.00026032,0.0,0 STARLINK-3504,1 51881U 22022AF  22209.58334491 -.00026032  00000-0 -16232-2 0  9994,2 51881  53.2150 165.3095 0002458  50.4488 170.6365 15.08843177  1304,6917.871,95.437,541.436,538.035,0.0
51881.0,STARLINK-3504,PAYLOAD,2022-07-28 22:00:00,15.08843852,0.000248,53.2154,163.8129,54.7149,177.9561,0.00021491,3.134e-05,0.0,0 STARLINK-3504,1 51881U 22022AF  22209.91667824  .00003134  00000-0  21491-3 0  9990,2 51881  53.2154 163.8129 0002480  54.7149 177.9561 15.08843852  1303,6917.869000000002,95.437,541.4490000000002,538.018,0.0
51881.0,STARLINK-3504,PAYLOAD,2022-07-29 06:00:00,15.08823757,0.000268,53.2155,162.3182,50.2659,194.0082,0.0020279,0.0003212,0.0,0 STARLINK-3504,1 51881U 22022AF  22210.25001157  .00032120  00000-0  20279-2 0  9999,2 51881  53.2155 162.3182 0002680  50.2659 194.0082 15.08823757 24109,6917.93,95.439,541.649,537.941,0.0
51881.0,STARLINK-3504,PAYLOAD,2022-07-29 14:00:01,15.08856363,0.0002538,53.2158,160.8204,52.0878,203.7736,-0.0018553,-0.00029709,0.0,0 STARLINK-3504,1 51881U 22022AF  22210.58334491 -.00029709  00000-0 -18553-2 0  9998,2 51881  53.2158 160.8204 0002538  52.0878 203.7736 15.08856363  1305,6917.83,95.437,541.451,537.94,0.0
51881.0,STARLINK-3504,PAYLOAD,2022-07-29 22:00:00,15.08850774,0.0002511,53.2161,159.3238,54.9732,212.4887,-0.0020911,-0.00033426,0.0,0 STARLINK-3504,1 51881U 22022AF  22210.91667824 -.00033426  00000-0 -20911-2 0  9996,2 51881  53.2161 159.3238 0002511  54.9732 212.4887 15.08850774 24208,6917.847,95.437,541.45,537.975,0.0
51881.0,STARLINK-3504,PAYLOAD,2022-07-30 14:00:01,15.08833178,0.000254,53.2165,156.3314,52.8696,237.76,-0.0009394,-0.00015206,0.0,0 STARLINK-3504,1 51881U 22022AF  22211.58334491 -.00015206  00000-0 -93940-3 0  9990,2 51881  53.2165 156.3314 0002540  52.8696 237.7600 15.08833178  1300,6917.901,95.438,541.523,538.009,0.0
51881.0,STARLINK-3504,PAYLOAD,2022-07-30 22:00:00,15.08844542,0.0002545,53.2167,154.835,56.1364,246.0707,-0.00054626,-8.973e-05,0.0,0 STARLINK-3504,1 51881U 22022AF  22211.91667824 -.00008973  00000-0 -54626-3 0  9997,2 51881  53.2167 154.8350 0002545  56.1364 246.0707 15.08844542  1307,6917.8669999999975,95.437,541.492,537.971,0.0
51881.0,STARLINK-3504,PAYLOAD,2022-07-31 06:00:02,15.08817126,0.000272,53.2166,153.3403,52.25100000000001,261.6202,0.0024809999999999,0.00039395,0.0,0 STARLINK-3504,1 51881U 22022AF  22212.25002315  .00039395  00000-0  24810-2 0  9994,2 51881  53.2166 153.3403 0002720  52.2510 261.6202 15.08817126 24401,6917.95,95.439,541.697,537.934,0.0
51881.0,STARLINK-3504,PAYLOAD,2022-07-31 14:00:01,15.08839936,0.0002571,53.2167,151.8425,55.5239,269.8705,-0.00033644,-5.639e-05,0.0,0 STARLINK-3504,1 51881U 22022AF  22212.58334491 -.00005639  00000-0 -33644-3 0  9995,2 51881  53.2167 151.8425 0002571  55.5239 269.8705 15.08839936  1302,6917.880999999999,95.438,541.524,537.967,0.0
51881.0,STARLINK-3504,PAYLOAD,2022-07-31 22:00:00,15.08859739,0.0002576,53.2169,150.3463,58.1948,278.7894,-0.00088201,-0.00014307,0.0,0 STARLINK-3504,1 51881U 22022AF  22212.91667824 -.00014307  00000-0 -88201-3 0  9992,2 51881  53.2169 150.3463 0002576  58.1948 278.7894 15.08859739  1302,6917.82,95.436,541.467,537.903,0.0
51881.0,STARLINK-3504,PAYLOAD,2022-08-01 14:00:01,15.08856137,0.0002535,53.2164,147.3534,58.0049,302.1952,-0.0013425,-0.00021601,0.0,0 STARLINK-3504,1 51881U 22022AF  22213.58334491 -.00021601  00000-0 -13425-2 0  9997,2 51881  53.2164 147.3534 0002535  58.0049 302.1952 15.08856137  1315,6917.831,95.437,541.45,537.942,0.0
51881.0,STARLINK-3504,PAYLOAD,2022-08-01 22:00:00,15.08851422,0.0002513,53.2165,145.8574,59.2104,312.5927,-0.0020826,-0.00033292,0.0,0 STARLINK-3504,1 51881U 22022AF  22213.91667824 -.00033292  00000-0 -20826-2 0  9995,2 51881  53.2165 145.8574 0002513  59.2104 312.5927 15.08851422  1302,6917.845,95.437,541.4490000000002,537.972,0.0
51881.0,STARLINK-3504,PAYLOAD,2022-08-02 06:00:02,15.08809633,0.0002628,53.216,144.3624,55.2628,328.2017,0.0026631999999999,0.00042318,0.0,0 STARLINK-3504,1 51881U 22022AF  22214.25002315  .00042318  00000-0  26632-2 0  9999,2 51881  53.2160 144.3624 0002628  55.2628 328.2017 15.08809633 24712,6917.973000000001,95.439,541.656,538.02,0.0
51881.0,STARLINK-3504,PAYLOAD,2022-08-02 14:00:01,15.08822935,0.0002494,53.2158,142.8644,59.9434,335.04,0.00092306,0.00014426,0.0,0 STARLINK-3504,1 51881U 22022AF  22214.58334491  .00014426  00000-0  92306-3 0  9999,2 51881  53.2158 142.8644 0002494  59.9434 335.0400 15.08822935  1303,6917.933000000001,95.439,541.523,538.072,0.0
51881.0,STARLINK-3504,PAYLOAD,2022-08-03 14:00:01,15.08832084,0.0002528,53.2152,138.3752,62.1192,7.6469,0.0015072,0.00023776,0.0,0 STARLINK-3504,1 51881U 22022AF  22215.58334491  .00023776  00000-0  15072-2 0  9992,2 51881  53.2152 138.3752 0002528  62.1192   7.6469 15.08832084  1305,6917.905,95.438,541.518,538.021,0.0
51881.0,STARLINK-3504,PAYLOAD,2022-08-03 22:00:01,15.08876762,0.0002581,53.2152,136.8793,62.3695,19.0511,-0.0046589,-0.00073755,0.0,0 STARLINK-3504,1 51881U 22022AF  22215.91668981 -.00073755  00000-0 -46589-2 0  9994,2 51881  53.2152 136.8793 0002581  62.3695  19.0511 15.08876762  1308,6917.768,95.435,541.419,537.8480000000002,0.0
51881.0,STARLINK-3504,PAYLOAD,2022-08-04 14:00:01,15.08814152,0.0002501,53.215,133.8858,62.4315,42.1184,0.0019234,0.00030435,0.0,0 STARLINK-3504,1 51881U 22022AF  22216.58334491  .00030435  00000-0  19234-2 0  9997,2 51881  53.2150 133.8858 0002501  62.4315  42.1184 15.08814152 25064,6917.959,95.439,541.555,538.094,0.0
